OBJECT_NAME,OBJECT_ID,EPOCH,MEAN_MOTION,ECCENTRICITY,INCLINATION,RA_OF_ASC_NODE,ARG_OF_PERICENTER,MEAN_ANOMALY,EPHEMERIS_TYPE,CLASSIFICATION_TYPE,NORAD_CAT_ID,ELEMENT_SET_NO,REV_AT_EPOCH,BSTAR,MEAN_MOTION_DOT,MEAN_MOTION_DDOT
BEIDOU-3S IGSO-1S (C31),2015-019A,2026-07-02T19:12:21.705408,1.00680073,.00768606,49.1798,295.2769,219.1125,144.2493,0,U,40549,999,4123,0,-.19E-5,0
GPS BIIF-10 (PRN 08),2015-033A,2026-07-11T15:39:22.089600,2.00554867,.01152883,53.9638,266.0769,30.2822,330.4526,0,U,40730,999,8048,0,.13E-6,0
BEIDOU-3S M2S (C58),2015-037A,2026-07-10T09:53:34.240704,1.86232238,.0009273,54.8489,301.2473,257.2247,102.6907,0,U,40748,999,7455,0,-.67E-6,0
BEIDOU-3S M1S (C57),2015-037B,2026-07-11T16:34:22.490112,1.86254753,.00028343,54.8440,301.1898,63.3740,296.6751,0,U,40749,999,7458,0,-.66E-6,0
GSAT0206 (GALILEO 10),2015-045B,2026-07-10T08:01:00.659424,1.70473539,.00020653,54.9400,220.9648,329.8405,30.2271,0,U,40890,999,6743,0,.9E-6,0
BEIDOU-3S IGSO-2S (C56),2015-053A,2026-07-12T15:40:00.221376,1.00253181,.00663358,49.1821,258.4784,193.3301,167.2948,0,U,40938,999,3961,0,-.88E-6,0
GPS BIIF-11 (PRN 10),2015-062A,2026-07-12T04:56:31.483680,2.00566875,.01127323,56.9764,29.8480,230.8964,128.1470,0,U,41019,999,7833,0,-.52E-6,0
GSAT-15 (GAGAN/PRN 139),2015-065A,2026-07-12T12:06:43.196832,1.00268956,.00035491,0.0244,49.3532,43.5169,112.7196,0,U,41028,999,3905,0,0,0
GSAT0209 (GALILEO 12),2015-079A,2026-07-08T03:44:33.897696,1.70473596,.00049977,55.8390,100.6867,350.6288,9.3765,0,U,41174,999,6513,0,-.8E-7,0
GSAT0208 (GALILEO 11),2015-079B,2026-07-11T21:30:04.890816,1.70473473,.000497,55.8397,100.5809,26.8071,333.2285,0,U,41175,999,6561,0,-.3E-6,0
IRNSS-1E,2016-003A,2026-07-10T13:58:50.692224,1.00267797,.0019285,33.2836,59.4106,178.7449,11.7354,0,U,41241,999,3831,0,-.316E-5,0
GPS BIIF-12 (PRN 32),2016-007A,2026-07-12T07:08:13.837632,2.00575521,.00966049,55.5393,88.4639,247.6175,111.3935,0,U,41328,999,7634,0,-.36E-6,0
COSMOS 2514 (751),2016-008A,2026-07-11T05:13:06.678624,2.13102486,.00121908,65.0058,312.1821,200.7153,159.2416,0,U,41330,999,8113,0,-.62E-6,0
BEIDOU-2 IGSO-6 (C13),2016-021A,2026-06-26T02:38:38.671584,1.00258926,.0057558,60.2385,37.9495,231.0163,137.2672,0,U,41434,999,3757,0,-.145E-5,0
IRNSS-1G,2016-027A,2026-07-12T12:24:59.567040,1.00272473,.0005967,5.2563,96.8886,9.9583,139.4871,0,U,41469,999,3743,0,-.339E-5,0
GSAT0211 (GALILEO 14),2016-030A,2026-07-10T20:18:43.597152,1.70473689,.00033143,55.0905,221.0437,318.6557,41.3997,0,U,41549,999,6307,0,.9E-6,0
GSAT0210 (GALILEO 13),2016-030B,2026-07-11T16:33:50.714784,1.70473889,.0004667,55.0894,221.0186,245.3179,114.7139,0,U,41550,999,6308,0,.88E-6,0
BEIDOU-2 G7 (C03),2016-037A,2026-07-12T15:44:52.254240,1.00274892,.00060177,1.7795,69.4808,359.1787,208.6232,0,U,41586,999,714,0,-.355E-5,0
EUTELSAT 117 WEST B (WAAS/PRN 131),2016-038B,2026-07-12T09:23:38.695776,1.00270256,.00002597,0.0123,120.2937,354.1008,199.8112,0,U,41589,999,3691,0,-.1E-6,0
GSAT0207 (GALILEO 15),2016-069A,2026-07-11T23:14:54.714048,1.70473524,.0004522,55.5126,100.4004,339.9754,20.0172,0,U,41859,999,5982,0,-.3E-6,0
GSAT0212 (GALILEO 16),2016-069B,2026-07-11T05:39:07.311456,1.70473636,.00043885,55.5101,100.4158,9.8985,350.1187,0,U,41860,999,6006,0,-.28E-6,0
GSAT0213 (GALILEO 17),2016-069C,2026-07-10T10:18:28.366272,1.70474095,.00043943,55.5116,100.4460,317.3165,42.6580,0,U,41861,999,5991,0,-.24E-6,0
GSAT0214 (GALILEO 18),2016-069D,2026-07-11T03:53:46.103424,1.70473737,.00038218,55.5107,100.4185,326.4011,33.5832,0,U,41862,999,6005,0,-.28E-6,0
SES-15 (WAAS/PRN 133),2017-026A,2026-07-12T12:15:38.889792,1.00267415,.00002323,0.0263,328.9093,135.0399,241.1957,0,U,42709,999,768,0,.61E-6,0
QZS-2 (QZSS/PRN 194),2017-028A,2026-07-12T11:07:02.581248,1.00277448,.07577411,39.3903,242.7811,269.5677,87.1524,0,U,42738,999,788,0,-.98E-6,0
QZS-3 (QZSS/PRN 199),2017-048A,2026-07-12T12:24:14.639040,1.00273393,.00024887,0.0698,216.8908,268.9767,117.6273,0,U,42917,999,3251,0,-.347E-5,0
COSMOS 2522 (752),2017-055A,2026-07-10T02:47:54.879360,2.13101919,.00109107,64.0805,191.1038,240.8947,119.0275,0,U,42939,999,6846,0,.122E-5,0
QZS-4 (QZSS/PRN 195),2017-062A,2026-07-11T21:21:47.890368,1.00290892,.07474763,40.0939,343.1714,268.4974,137.4815,0,U,42965,999,3205,0,-.326E-5,0
BEIDOU-3 M1 (C19),2017-069A,2026-07-11T07:06:21.026016,1.86230964,.00093913,56.7127,62.2910,328.4947,31.5150,0,U,43001,999,5905,0,-.44E-6,0
BEIDOU-3 M2 (C20),2017-069B,2026-07-10T03:51:48.602880,1.86230592,.00082547,56.7107,62.3639,357.9796,2.0799,0,U,43002,999,5902,0,-.46E-6,0
GSAT0215 (GALILEO 19),2017-079A,2026-07-11T01:34:10.051104,1.70474334,.00036979,55.0682,220.8492,267.9007,92.1373,0,U,43055,999,5339,0,.9E-6,0
